{
  "type": "FeatureCollection",
  "features": [
    {
      "type": "Feature",
      "properties": {
        "norad_id": 38143,
        "name": "FENGYUN 1C DEB",
        "group": "fengyun-1c-debris",
        "lat": 67.96866207198559,
        "lon": -112.4717829533758,
        "alt_km": 881.5980318860948,
        "timestamp": "2025-12-14T11:29:50.350181+00:00",
        "meta_object_name": "FENGYUN 1C DEB",
        "meta_object_id": "1999-025EQQ",
        "meta_epoch": "2025-12-10T09:32:31.718976",
        "meta_mean_motion": 14.04887386,
        "meta_eccentricity": 0.00563123,
        "meta_inclination": 99.0315,
        "meta_ra_of_asc_node": 40.3233,
        "meta_arg_of_pericenter": 227.9602,
        "meta_mean_anomaly": 131.6765,
        "meta_ephemeris_type": 0,
        "meta_classification_type": "U",
        "meta_norad_cat_id": 38143,
        "meta_element_set_no": 999,
        "meta_rev_at_epoch": 60250,
        "meta_bstar": 0.00083811483,
        "meta_mean_motion_dot": 1.321e-05,
        "meta_mean_motion_ddot": 0,
        "tle_line1": "1 38143U 99025EQQ 25344.39758934  .00001321  00000+0  83811-3 0  9990",
        "tle_line2": "2 38143  99.0315  40.3233 0056312 227.9602 131.6765 14.04887386602509"
      },
      "geometry": {
        "type": "Point",
        "coordinates": [
          -112.4717829533758,
          67.96866207198559
        ]
      }
    },
    {
      "type": "Feature",
      "properties": {
        "norad_id": 38144,
        "name": "FENGYUN 1C DEB",
        "group": "fengyun-1c-debris",
        "lat": -1.6386743094055098,
        "lon": -7.461605810966745,
        "alt_km": 827.8496976657398,
        "timestamp": "2025-12-14T11:29:50.350191+00:00",
        "meta_object_name": "FENGYUN 1C DEB",
        "meta_object_id": "1999-025EQR",
        "meta_epoch": "2025-12-12T07:21:41.538528",
        "meta_mean_motion": 13.59024242,
        "meta_eccentricity": 0.02903277,
        "meta_inclination": 98.9688,
        "meta_ra_of_asc_node": 170.8072,
        "meta_arg_of_pericenter": 192.7812,
        "meta_mean_anomaly": 166.5857,
        "meta_ephemeris_type": 0,
        "meta_classification_type": "U",
        "meta_norad_cat_id": 38144,
        "meta_element_set_no": 999,
        "meta_rev_at_epoch": 61031,
        "meta_bstar": 0.0024533733,
        "meta_mean_motion_dot": 2.337e-05,
        "meta_mean_motion_ddot": 0,
        "tle_line1": "1 38144U 99025EQR 25346.30673077  .00002337  00000+0  24534-2 0  9992",
        "tle_line2": "2 38144  98.9688 170.8072 0290327 192.7812 166.5857 13.59024242610319"
      },
      "geometry": {
        "type": "Point",
        "coordinates": [
          -7.461605810966745,
          -1.6386743094055098
        ]
      }
    },
    {
      "type": "Feature",
      "properties": {
        "norad_id": 38146,
        "name": "FENGYUN 1C DEB",
        "group": "fengyun-1c-debris",
        "lat": 10.044441869414642,
        "lon": 67.54263348728126,
        "alt_km": 687.854647064687,
        "timestamp": "2025-12-14T11:29:50.350201+00:00",
        "meta_object_name": "FENGYUN 1C DEB",
        "meta_object_id": "1999-025EQT",
        "meta_epoch": "2025-12-13T00:02:13.445664",
        "meta_mean_motion": 14.59236132,
        "meta_eccentricity": 0.02025945,
        "meta_inclination": 99.4831,
        "meta_ra_of_asc_node": 67.5521,
        "meta_arg_of_pericenter": 102.1882,
        "meta_mean_anomaly": 73.0612,
        "meta_ephemeris_type": 0,
        "meta_classification_type": "U",
        "meta_norad_cat_id": 38146,
        "meta_element_set_no": 999,
        "meta_rev_at_epoch": 31883,
        "meta_bstar": 0.0013726133,
        "meta_mean_motion_dot": 8.572e-05,
        "meta_mean_motion_ddot": 0,
        "tle_line1": "1 38146U 99025EQT 25347.00154451  .00008572  00000+0  13726-2 0  9990",
        "tle_line2": "2 38146  99.4831  67.5521 0202594 102.1882  73.0612 14.59236132318836"
      },
      "geometry": {
        "type": "Point",
        "coordinates": [
          67.54263348728126,
          10.044441869414642
        ]
      }
    },
    {
      "type": "Feature",
      "properties": {
        "norad_id": 38147,
        "name": "FENGYUN 1C DEB",
        "group": "fengyun-1c-debris",
        "lat": -44.30488532413,
        "lon": 11.10696887097665,
        "alt_km": 786.8096507222499,
        "timestamp": "2025-12-14T11:29:50.350211+00:00",
        "meta_object_name": "FENGYUN 1C DEB",
        "meta_object_id": "1999-025EQU",
        "meta_epoch": "2025-12-12T19:13:06.735360",
        "meta_mean_motion": 14.23444568,
        "meta_eccentricity": 0.00496162,
        "meta_inclination": 98.5588,
        "meta_ra_of_asc_node": 1.0223,
        "meta_arg_of_pericenter": 300.0137,
        "meta_mean_anomaly": 59.6124,
        "meta_ephemeris_type": 0,
        "meta_classification_type": "U",
        "meta_norad_cat_id": 38147,
        "meta_element_set_no": 999,
        "meta_rev_at_epoch": 60388,
        "meta_bstar": 0.00094328854,
        "meta_mean_motion_dot": 2.127e-05,
        "meta_mean_motion_ddot": 0,
        "tle_line1": "1 38147U 99025EQU 25346.80077240  .00002127  00000+0  94329-3 0  9997",
        "tle_line2": "2 38147  98.5588   1.0223 0049616 300.0137  59.6124 14.23444568603889"
      },
      "geometry": {
        "type": "Point",
        "coordinates": [
          11.10696887097665,
          -44.30488532413
        ]
      }
    },
    {
      "type": "Feature",
      "properties": {
        "norad_id": 38149,
        "name": "FENGYUN 1C DEB",
        "group": "fengyun-1c-debris",
        "lat": 66.90536990612505,
        "lon": -179.20309853946955,
        "alt_km": 758.8547801097648,
        "timestamp": "2025-12-14T11:29:50.350221+00:00",
        "meta_object_name": "FENGYUN 1C DEB",
        "meta_object_id": "1999-025EQW",
        "meta_epoch": "2025-12-07T17:18:01.960128",
        "meta_mean_motion": 14.25910713,
        "meta_eccentricity": 0.00777044,
        "meta_inclination": 98.3566,
        "meta_ra_of_asc_node": 334.1881,
        "meta_arg_of_pericenter": 175.9559,
        "meta_mean_anomaly": 184.2267,
        "meta_ephemeris_type": 0,
        "meta_classification_type": "U",
        "meta_norad_cat_id": 38149,
        "meta_element_set_no": 999,
        "meta_rev_at_epoch": 70416,
        "meta_bstar": 0.00036135678,
        "meta_mean_motion_dot": 8.47e-06,
        "meta_mean_motion_ddot": 0,
        "tle_line1": "1 38149U 99025EQW 25341.72085602  .00000847  00000+0  36136-3 0  9995",
        "tle_line2": "2 38149  98.3566 334.1881 0077704 175.9559 184.2267 14.25910713704169"
      },
      "geometry": {
        "type": "Point",
        "coordinates": [
          -179.20309853946955,
          66.90536990612505
        ]
      }
    },
    {
      "type": "Feature",
      "properties": {
        "norad_id": 38155,
        "name": "FENGYUN 1C DEB",
        "group": "fengyun-1c-debris",
        "lat": 42.79747366258557,
        "lon": -115.14402914154809,
        "alt_km": 790.6300412484015,
        "timestamp": "2025-12-14T11:29:50.350231+00:00",
        "meta_object_name": "FENGYUN 1C DEB",
        "meta_object_id": "1999-025ERC",
        "meta_epoch": "2025-12-09T23:26:42.825120",
        "meta_mean_motion": 14.2501054,
        "meta_eccentricity": 0.00946971,
        "meta_inclination": 98.4476,
        "meta_ra_of_asc_node": 248.4308,
        "meta_arg_of_pericenter": 135.2408,
        "meta_mean_anomaly": 225.6463,
        "meta_ephemeris_type": 0,
        "meta_classification_type": "U",
        "meta_norad_cat_id": 38155,
        "meta_element_set_no": 999,
        "meta_rev_at_epoch": 63736,
        "meta_bstar": 0.0028448127,
        "meta_mean_motion_dot": 6.943e-05,
        "meta_mean_motion_ddot": 0,
        "tle_line1": "1 38155U 99025ERC 25343.97688455  .00006943  00000+0  28448-2 0  9995",
        "tle_line2": "2 38155  98.4476 248.4308 0094697 135.2408 225.6463 14.25010540637364"
      },
      "geometry": {
        "type": "Point",
        "coordinates": [
          -115.14402914154809,
          42.79747366258557
        ]
      }
    },
    {
      "type": "Feature",
      "properties": {
        "norad_id": 38157,
        "name": "FENGYUN 1C DEB",
        "group": "fengyun-1c-debris",
        "lat": 70.71777972834504,
        "lon": -133.51708861090634,
        "alt_km": 651.4821634920145,
        "timestamp": "2025-12-14T11:29:50.350242+00:00",
        "meta_object_name": "FENGYUN 1C DEB",
        "meta_object_id": "1999-025ERE",
        "meta_epoch": "2025-12-13T04:45:26.447328",
        "meta_mean_motion": 14.21739524,
        "meta_eccentricity": 0.02741228,
        "meta_inclination": 99.6561,
        "meta_ra_of_asc_node": 254.2014,
        "meta_arg_of_pericenter": 113.0668,
        "meta_mean_anomaly": 249.9657,
        "meta_ephemeris_type": 0,
        "meta_classification_type": "U",
        "meta_norad_cat_id": 38157,
        "meta_element_set_no": 999,
        "meta_rev_at_epoch": 76254,
        "meta_bstar": 0.00095428198,
        "meta_mean_motion_dot": 3.021e-05,
        "meta_mean_motion_ddot": 0,
        "tle_line1": "1 38157U 99025ERE 25347.19822277  .00003021  00000+0  95428-3 0  9994",
        "tle_line2": "2 38157  99.6561 254.2014 0274122 113.0668 249.9657 14.21739524762547"
      },
      "geometry": {
        "type": "Point",
        "coordinates": [
          -133.51708861090634,
          70.71777972834504
        ]
      }
    }
  ]
}